[{"OBJECT_NAME":"GOES 18 [+]","OBJECT_ID":"2022-021A","EPOCH":"2022-08-18T12:59:36.246336","MEAN_MOTION":1.00273501,"ECCENTRICITY":0.0003008,"INCLINATION":0.0268,"RA_OF_ASC_NODE":77.7085,"ARG_OF_PERICENTER":134.4446,"MEAN_ANOMALY":172.6401,"EPHEMERIS_TYPE":0,"CLASSIFICATION_TYPE":"U","NORAD_CAT_ID":51850,"ELEMENT_SET_NO":999,"REV_AT_EPOCH":175,"BSTAR":0,"MEAN_MOTION_DOT":8.9e-7,"MEAN_MOTION_DDOT":0}]