GOES 18                 
1 51850U 22021A   22230.54139174  .00000089  00000+0  00000+0 0  9994
2 51850   0.0268  77.7085 0003008 134.4446 172.6401  1.00273501  1751
